OSEBuildingID,DataYear,BuildingName,BuildingType,TaxParcelIdentificationNumber,Address,City,State,ZipCode,Latitude,Longitude,Neighborhood,CouncilDistrictCode,YearBuilt,NumberofFloors,NumberofBuildings,PropertyGFATotal,PropertyGFABuilding(s),PropertyGFAParking,PrimaryPropertyType,ENERGYSTARScore,SiteEUIWN(kBtu/sf),SiteEUI(kBtu/sf),SiteEnergyUse(kBtu),SiteEnergyUseWN(kBtu),SourceEUIWN(kBtu/sf),SourceEUI(kBtu/sf),LargestPropertyUseType,LargestPropertyUseTypeGFA,SecondLargestPropertyUseType,SecondLargestPropertyUseTypeGFA,ThirdLargestPropertyUseType,ThirdLargestPropertyUseTypeGFA,Electricity(kWh),Electricity(kBtu),NaturalGas(therms),NaturalGas(kBtu),SteamUse(kBtu),TotalGHGEmissions,GHGEmissionsIntensity,ComplianceStatus,ComplianceIssue
1,2018,MAYFLOWER PARK HOTEL,NonResidential,0659000030,405 OLIVE WAY,SEATTLE,WA,98101,47.6122,-122.33799,DOWNTOWN,1,1927,12,0,88434,88434,0,Hotel,60,84.40,83.80,7465990,7408290,170.10,168.90,Hotel,88434,NA,,NA,,1145355,3907951,14101,1410145,2090193,196.4,2.2,Compliant,No Issue
2,2018,PARAMOUNT HOTEL,NonResidential,0659000220,724 PINE ST,SEATTLE,WA,98101,47.61317,-122.33393,DOWNTOWN,1,1996,11,1,103566,88502,15064,Hotel,71,90.00,89.20,7962964,7897345,151.20,150.40,Hotel,83880,Parking,15064,Restaurant,4622,840157,2866615,50307,5030730,0,274.8,3.1,Compliant,No Issue
3,2018,WESTIN HOTEL (Parent Building),NonResidential,0659000475,1900 5TH AVE,SEATTLE,WA,98101,47.61393,-122.3381,DOWNTOWN,1,1969,41,3,956110,759392,196718,Hotel,64,89.00,88.20,67336376,66755536,200.60,199.70,Hotel,756493,Parking,138635,Swimming Pool,0,13028620,44453651,14503,1450300,20851598,1304.2,1.7,Compliant,No Issue
5,2018,HOTEL MAX,NonResidential,0659000640,620 STEWART ST,SEATTLE,WA,98101,47.61412,-122.33664,DOWNTOWN,7,1926,10,0,61320,61320,0,Hotel,39,121.10,120.00,7426193,7360236,209.00,206.00,Hotel,61320,NA,,NA,,769653,2626057,27306,2730608,2003570,258.5,4.2,Compliant,No Issue
8,2018,WARWICK SEATTLE HOTEL,NonResidential,0659000970,401 LENORA ST,SEATTLE,WA,98121,47.61375,-122.34047,DOWNTOWN,1,1980,18,0,175580,113580,62000,Hotel,81,107.40,106.40,13261917,13134094,179.60,179.10,Hotel,123445,Parking,68009,Swimming Pool,0,1392492,4751183,83829,8382912,0,457.9,4,Compliant,No Issue
9,2018,WEST PRECINCT (SEATTLE POLICE),Nonresidential COS,0660000560,810 VIRGINIA ST,SEATTLE,WA,98101,47.61623,-122.33657,DOWNTOWN,1,1999,2,1,97288,60090,37198,Police Station,,284.00,277.20,14414122,14070776,575.70,570.70,Police Station,50755,Parking,40971,NA,,2376581,8108894,59619,5961883,0,338.3,5.6,Compliant,No Issue
10,2018,CAMLIN WORLDMARK HOTEL,NonResidential,0660000825,1619 9TH AVE,SEATTLE,WA,98101,47.6139,-122.33283,DOWNTOWN,7,1926,11,0,83008,83008,0,Hotel,53,72.90,71.20,5928950,5791972,131.60,129.10,Hotel,81352,NA,,NA,,740400,2526245,32657,3265727,0,180.2,2.2,Compliant,No Issue
11,2018,PARAMOUNT THEATER,NonResidential,0660000955,901 PINE ST,SEATTLE,WA,98101,47.61327,-122.33136,DOWNTOWN,1,1926,8,0,102761,102761,0,Other - Entertainment/Public Assembly,,68.70,66.70,7056452,6852434,149.20,146.80,Other - Entertainment/Public Assembly,102761,NA,,NA,,1268772,4329050,4391,439080,2084303,145.7,1.4,Compliant,No Issue
12,2018,COURTYARD BY MARRIOTT - PIONEER SQ,NonResidential,0939000080,612 2ND AVE,SEATTLE,WA,98104,47.60294,-122.33263,DOWNTOWN,7,1904,15,0,163984,163984,0,Hotel,64,93.70,92.10,15372180,15107016,168.60,166.10,Hotel,163984,NA,,NA,,1905163,6500416,86066,8606600,0,474.4,2.9,Compliant,No Issue
13,2018,LYON BUILDING,Multifamily MR (5-9),0939000105,607 3RD AVE,SEATTLE,WA,98104,47.60284,-122.33184,DOWNTOWN,1,1910,6,0,63712,62216,1496,Multifamily Housing,14,93.70,90.80,5742266,5562718,177.30,173.80,Multifamily Housing,43377,Retail Store,10652,Office,7253,754990,2576024,9975,997455,1989239,165.6,2.7,Compliant,No Issue
15,2018,HOTEL MONACO,NonResidential,0942000145,1101 4TH AVE,SEATTLE,WA,98101,47.60695,-122.33414,DOWNTOWN,1,1969,11,0,153163,133884,19279,Hotel,48,120.00,118.30,16059593,15833285,206.30,204.90,Hotel,133884,Parking,19279,NA,,1662347,5671928,44299,4429862,5731494,555.1,4.1,Compliant,No Issue
16,2018,W SEATTLE HOTEL,NonResidential,0942000165,1112 4TH AVE,SEATTLE,WA,98101,47.60738,-122.33362,DOWNTOWN,1,1998,25,0,333176,272015,61161,Hotel,38,92.30,92.40,26950742,26981740,208.00,208.60,Hotel,292079,Parking,44561,NA,,5311972,18124448,30510,3051000,5806291,519.1,1.9,Not Compliant,Default Data
17,2018,EXECUTIVE PACIFIC PLAZA,NonResidential,0942000210,400 SPRING ST,SEATTLE,WA,98104,47.60699,-122.33346,DOWNTOWN,7,1928,9,0,65009,65009,0,Hotel,60,73.50,73.50,4777262,4777262,117.90,117.90,Hotel,65009,NA,,NA,,410361,1400152,20787,2078675,1298435,183.2,2.8,Compliant,No Issue
18,2018,CROWNE PLAZA,NonResidential,0942000235,1113 6TH AVE,SEATTLE,WA,98101,47.60809,-122.33212,DOWNTOWN,7,1980,33,0,353111,295511,57600,Hotel,70,78.50,78.50,23188590,23188590,163.40,163.40,Hotel,295511,Parking,57600,NA,,4008800,13678026,95106,9510564,0,541.6,1.8,Compliant,No Issue
19,2018,HOTEL VINTAGE PARK,NonResidential,0942000265,1100 5TH AVE,SEATTLE,WA,98101,47.60755,-122.33244,DOWNTOWN,1,1922,11,0,92190,66990,25200,Hotel,24,146.40,143.80,9867718,9688961,248.40,245.30,Hotel,67390,Parking,18031,NA,,952972,3251539,20906,2090646,4346775,350.8,5.2,Compliant,No Issue
21,2018,SEATTLE CENTRAL LIBRARY,Nonresidential COS,0942000275,1000 4TH AVE,SEATTLE,WA,98104,47.60649,-122.33297,DOWNTOWN,1,2004,11,0,412000,355000,57000,Library,,42.70,42.80,15617546,15675793,116.30,117.00,Library,364913,Parking,49000,Data Center,1074,4399632,15011544,0,0,664249,75.4,0.2,Compliant,No Issue
22,2018,DOWNTOWN SEATTLE YMCA,NonResidential,0942000350,909 4TH AVE,SEATTLE,WA,98104,47.60546,-122.33279,DOWNTOWN,7,1930,6,0,103911,103911,0,Fitness Center/Health Club/Gym,,119.00,117.70,12369159,12232376,226.20,224.60,Fitness Center/Health Club/Gym,61528,Office,32195,Other - Lodging/Residential,10188,1618329,5521739,12656,1265645,5444991,371.4,3.6,Compliant,No Issue
23,2018,RENAISSANCE MADISON HOTEL,NonResidential,0942000430,515 MADISON ST,SEATTLE,WA,98104,47.60681,-122.33078,DOWNTOWN,7,1983,28,0,416281,331281,85000,Hotel,37,95.00,94.60,33087274,32968230,203.20,203.20,Hotel,348329,Parking,85000,NA,,6055088,20659960,123083,12308269,0,708.8,2.1,Compliant,No Issue
24,2018,RAINIER CLUB (HISTORICAL LANDMARK),NonResidential,0942000510,810 4TH AVE,SEATTLE,WA,98104,47.60515,-122.33159,DOWNTOWN,7,1907,5,0,57452,57452,0,Mixed Use Property,,147.50,144.40,8475214,8297564,279.60,276.10,Social/Meeting Hall,16442,Restaurant,15505,Office,9741,1148053,3917157,24548,2454837,1925571,243.2,4.2,Compliant,No Issue
25,2018,DOUBLE TREE ARCTIC CLUB HOTEL - SEATTLE,NonResidential,0942000610,700 3RD AVE,SEATTLE,WA,98104,47.60376,-122.33194,DOWNTOWN,7,1916,10,0,104352,104352,0,Hotel,57,82.80,82.80,8644233,8644233,189.00,189.00,Hotel,104352,NA,,NA,,1729638,5901525,6626,662619,2080088,161.5,1.5,Compliant,No Issue
26,2018,KING COUNTY COURTHOUSE,NonResidential,0942000860,516 3RD AVE,SEATTLE,WA,98104,47.60265,-122.33051,DOWNTOWN,7,1916,10,0,540360,540360,0,Courthouse,58,94.10,92.30,50547020,49571632,175.50,173.60,Courthouse,501287,Barracks,35863,NA,,6900411,23544202,260274,26027431,0,1445.2,2.7,Compliant,No Issue
27,2018,KING COUNTY CORRECTIONAL FACILITY,NonResidential,0942001010,500 5TH AVE,SEATTLE,WA,98104,47.60378,-122.32842,DOWNTOWN,1,1985,19,0,385274,385274,0,Prison/Incarceration,,142.60,141.20,48396060,47901700,237.90,237.80,Prison/Incarceration,339315,Parking,45959,NA,,5089567,17365603,305361,30536094,0,1668.1,4.3,Compliant,No Issue
28,2018,GRAHAM HILL ELEMENTARY SCHOOL (SPS-DISTRICT),SPS-District K-12,1102000138,5101 S GRAHAM ST,SEATTLE,WA,98118,47.54576,-122.26853,SOUTHEAST,2,1961,2,0,56228,56228,0,K-12 School,91,27.00,25.80,1593467,1519057,54.20,52.40,K-12 School,58916,NA,,NA,,250309,854056,6650,665001,0,37.6,0.7,Compliant,No Issue
29,2018,WATERTOWN HOTEL,NonResidential,1142000755,4242 ROOSEVELT WAY NE,SEATTLE,WA,98105,47.65959,-122.31755,NORTHEAST,1,2001,6,1,98356,67770,30586,Hotel,95,52.30,52.00,3542863,3521933,112.20,111.90,Hotel,67770,Parking,30586,NA,,650600,2219847,13021,1302086,0,75.1,1.1,Compliant,No Issue
30,2018,CORNISH (Main Campus Center),NonResidential,0660001420,1000 LENORA ST,SEATTLE,WA,98121,47.61816,-122.33629,DOWNTOWN,7,1928,7,0,126593,126593,0,College/University,,97.30,94.00,12157912,11747831,168.20,164.80,College/University,125000,NA,,NA,,1383186,4719431,70284,7028399,0,385.9,3,Compliant,No Issue
32,2018,HOMEWOOD SUITES -SEATTLE - Hilton,NonResidential,0660001832,1011 PIKE ST,SEATTLE,WA,98101,47.61301,-122.32929,EAST,1,1991,8,0,158676,128375,30301,Hotel,49,97.00,96.10,11370701,11265730,187.60,186.00,Hotel,117176,Parking,42000,Swimming Pool,0,1669762,5697228,55685,5568502,0,311,2.4,Compliant,No Issue
33,2018,SPRINGHILL SUITES SEATTLE DOWNTOWN,NonResidential,0660002680,1800 YALE AVE,SEATTLE,WA,98101,47.61784,-122.32966,DOWNTOWN,7,2001,10,0,171866,133585,38281,Hotel,60,87.00,86.90,11209339,11199122,170.50,171.20,Hotel,128909,Parking,38301,NA,,1726193,5889771,53093,5309350,0,297.7,2.2,Compliant,No Issue
34,2018,MEANY MIDDLE SCHOOL (SPS-DISTRICT),SPS-District K-12,0688000090,300 20TH AVE E,SEATTLE,WA,98112,47.62266,-122.30547,SHARED: CENTRAL &amp; EAST,3,1955,1,0,126351,126351,0,K-12 School,96,26.80,24.90,3385705,3147250,35.80,33.30,K-12 School,126351,NA,,NA,,151593,517237,26300,2630014,0,141.1,1.1,Compliant,No Issue
35,2018,HOTEL FIVE,NonResidential,0697000170,2200 5TH AVE,SEATTLE,WA,98121,47.61558,-122.34186,DOWNTOWN,1,1978,5,0,68410,52210,16200,Hotel,67,78.60,78.10,4102638,4079408,161.50,160.30,Hotel,52210,Parking,15400,NA,,684289,2334795,17446,1744613,0,98.9,1.9,Compliant,No Issue
36,2018,JANE ADDAMS MIDDLE (SPS-DISTRICT),SPS-District K-12,0752000170,11031 34TH AVE NE,SEATTLE,WA,98125,47.70994,-122.29301,NORTH,1,1949,2,0,160645,160645,0,K-12 School,71,39.80,37.40,6603814,6206542,61.90,59.00,K-12 School,166021,NA,,NA,,548087,1870074,43365,4336468,0,235.3,1.5,Compliant,No Issue
37,2018,JOHN HAY ELEMENTARY SCHOOL (SPS-DISTRICT),SPS-District K-12,0809000005,201 GARFIELD ST,SEATTLE,WA,98109,47.6329,-122.35172,MAGNOLIA / QUEEN ANNE,7,1989,2,0,51582,51582,0,K-12 School,73,27.00,26.10,1491331,1439059,75.70,73.00,K-12 School,55166,NA,,NA,,421764,1439059,0,0,0,3.8,0.1,Compliant,No Issue
38,2018,HOUSE OF GOOD SHEPHERD,NonResidential,0825049102,4649 SUNNYSIDE AVE N,SEATTLE,WA,98103,47.6641,-122.33118,LAKE UNION,1,1906,3,0,87262,87262,0,Office,,57.00,54.20,4469855,4247380,86.30,83.00,Office,43615,K-12 School,23177,Other - Entertainment/Public Assembly,5919,343098,1170649,30767,3076732,0,166.5,1.9,Compliant,No Issue
40,2018,SILVER CLOUD INN UNIVERSITY,NonResidential,0925049117,5036 25TH AVE NE,SEATTLE,WA,98105,47.66583,-122.29965,NORTHEAST,4,1994,4,0,81871,81871,0,Hotel,27,78.20,78.30,6399247,6406894,148.40,148.70,Hotel,81871,NA,,NA,,912037,3111871,32950,3295023,0,183.3,2.2,Compliant,No Issue
41,2018,2746 NE 45TH ST - PUBLIC STORAGE,NonResidential,0925049330,2746 NE 45TH ST,SEATTLE,WA,98105,47.66172,-122.29598,NORTHEAST,1,1955,2,0,26225,26225,0,Self-Storage Facility,,10.70,10.50,279595,276530,26.50,26.40,Self-Storage Facility,26225,NA,,NA,,67418,230030,465,46500,0,3.1,0.1,Compliant,No Issue
43,2018,BOEING PLANT 2 ISAL  (BLDG 2-122)-North Boeing Field Campus,Campus,0022000005,1135 S WEBSTER ST,SEATTLE,WA,98108,47.53493,-122.31788,GREATER DUWAMISH,1,1992,3,0,2026324,2026324,0,Mixed Use Property,,293.00,286.10,581511936,567845632,453.50,446.30,Office,686180,Laboratory,639946,Non-Refrigerated Warehouse,480625,48479000,165410348,4024353,402435300,0,21814.9,10.8,Compliant,No Issue
50,2018,LAWTON ELEMENTARY SCHOOL (SPS-DISTRICT),SPS-District K-12,0369000400,4017 26TH AVE W,SEATTLE,WA,98199,47.65671,-122.39047,MAGNOLIA / QUEEN ANNE,7,1990,2,0,54986,54986,0,K-12 School,73,32.20,30.70,1771207,1688685,73.00,70.10,K-12 School,54986,NA,,NA,,348618,1189486,4992,499199,0,29.7,0.5,Compliant,No Issue
51,2018,ECKSTEIN MIDDLE (SPS-DISTRICT),SPS-District K-12,0425049022,3003 NE 75TH ST,SEATTLE,WA,98115,47.68252,-122.29498,NORTHEAST,4,1950,2,0,175565,175565,0,K-12 School,93,34.70,32.30,6230373,5797068,50.70,47.90,K-12 School,179513,NA,,NA,,420665,1435310,43618,4361758,0,235.5,1.3,Compliant,No Issue
52,2018,SALMON BAY CENTER 5305 & 5309,NonResidential,0467000429,5305 SHILSHOLE AVE NW,SEATTLE,WA,98107,47.66587,-122.38476,BALLARD,1,1961,2,0,94900,94900,0,Office,10,132.30,129.20,6563108,6408345,290.70,288.40,Office,28055,Non-Refrigerated Warehouse,21562,NA,,1269742,4332360,20760,2075985,0,121.8,1.3,Compliant,No Issue
53,2018,EL CENTRO DE LA RAZA,NonResidential,0570000340,2524 16TH AVE S,SEATTLE,WA,98144,47.58034,-122.31132,GREATER DUWAMISH,2,1900,2,0,52554,52554,0,Office,77,48.60,46.40,2860714,2729815,77.60,74.90,Office,51029,Other - Education,7849,NA,,258171,880881,18489,1848934,0,100.5,1.9,Compliant,No Issue
54,2018,BLANCHET HIGH SCHOOL,NonResidential,0625049002,8200 WALLINGFORD AVE N,SEATTLE,WA,98103,47.68891,-122.33553,NORTHWEST,1,1954,3,0,175015,175015,0,K-12 School,69,57.50,54.60,10059544,9547488,90.20,86.60,K-12 School,175015,NA,,NA,,860602,2936376,66111,6611112,0,359,2.1,Compliant,No Issue
55,2018,VINE ST MINI STORAGE,NonResidential,0653000225,11 VINE ST,SEATTLE,WA,98121,47.61351,-122.35129,DOWNTOWN,7,1911,3,0,70586,70586,0,Self-Storage Facility,,31.10,30.40,2193202,2142204,71.30,70.60,Self-Storage Facility,38439,Vocational School,28197,Office,3859,456319,1556961,5852,585243,0,35.2,0.5,Compliant,No Issue
56,2018,HILTON SEATTLE,NonResidential,7802920020,1301 6TH AVE,SEATTLE,WA,98101,47.60946,-122.33337,DOWNTOWN,1,1969,24,0,332210,126240,205970,Hotel,95,44.50,44.30,15512941,15431908,92.80,92.50,Hotel,348630,NA,,NA,,2689945,9178092,62538,6253815,0,356.6,2.8,Compliant,No Issue
57,2018,5TH & PINE,NonResidential,1975700200,1513 5TH AVE,SEATTLE,WA,98101,47.6113,-122.33659,DOWNTOWN,7,1973,5,0,168115,168115,0,Office,78,53.50,53.80,9066856,9114712,149.70,150.50,Office,103362,Retail Store,65676,Data Center,493,2671369,9114711,0,0,0,24.3,0.1,Compliant,No Issue
58,2018,CENTURY SQUARE RETAIL,NonResidential,1975700365,1525 4TH AVE,SEATTLE,WA,98101,47.61076,-122.33765,DOWNTOWN,7,1920,2,0,57428,57428,0,Other - Mall,,18.20,18.20,1043196,1043196,39.40,39.40,Other - Mall,51747,"Personal Services (Health/Beauty, Dry Cleaning, etc)",5681,NA,,195653,667569,3756,375626,0,21.7,0.4,Compliant,No Issue
59,2018,GIBRALTAR TOWER,NonResidential,1975700380,1518 3RD AVE,SEATTLE,WA,98101,47.61048,-122.33794,DOWNTOWN,1,1910,8,0,59400,59400,0,Office,,47.30,47.30,2599818,2599818,132.40,132.40,Office,48366,Retail Store,6619,NA,,761963,2599818,0,0,0,6.9,0.1,Compliant,No Issue
60,2018,MANN BUILDING/WILD GINGER/TRIPLE DOOR,NonResidential,1975700525,1401 3RD AVE,SEATTLE,WA,98101,47.60886,-122.33744,DOWNTOWN,7,1926,2,0,52549,52549,0,Mixed Use Property,,305.10,298.30,16002685,15648427,471.40,465.60,Other - Entertainment/Public Assembly,23500,Restaurant,23500,Office,5459,1338469,4566856,110816,11081570,0,600.7,11.4,Compliant,No Issue
62,2018,ROOSEVELT HOTEL (HOTEL THEODORE),NonResidential,1976700010,1531 7TH AVE,SEATTLE,WA,98101,47.61233,-122.33432,DOWNTOWN,1,1930,20,0,98634,88591,10043,Hotel,51,84.40,83.80,7651354,7591841,184.20,182.30,Hotel,83591,Parking,10043,Restaurant,7057,1379876,4708137,8080,807954,2075751,165.8,1.9,Compliant,No Issue
63,2018,SHERATON GRAND SEATTLE - (Parent Building),Campus,1976700095,1400 6TH AVE,SEATTLE,WA,98101,47.61087,-122.33339,DOWNTOWN,1,1982,34,2,1083197,926614,156583,Hotel,65,88.60,87.90,88123088,87435872,176.90,176.20,Hotel,994212,Parking,117668,Swimming Pool,0,13669650,46640846,292765,29276491,11518554,2291.7,2.5,Compliant,No Issue
65,2018,INN AT THE MARKET,NonResidential,1977200050,86 PINE ST,SEATTLE,WA,98101,47.60997,-122.34138,DOWNTOWN,7,1985,7,0,71150,71150,0,Hotel,98,88.90,88.60,5105488,5088944,190.10,189.80,Hotel,41340,Parking,13730,Retail Store,9604,929902,3172825,19161,1916119,0,110.2,1.5,Compliant,No Issue
66,2018,MOORE HOTEL & THEATRE,NonResidential,1977201035,1926 2ND AVE,SEATTLE,WA,98101,47.61155,-122.34114,DOWNTOWN,7,1908,7,0,122810,122810,0,Hotel,99,51.90,49.40,6373928,6070163,73.20,70.60,Hotel,96360,Other - Entertainment/Public Assembly,26450,NA,,383784,1309471,47607,4760692,0,256.3,2.1,Compliant,No Issue
67,2018,QUALITY INN & SUITES - SEATTLE,NonResidential,1991200730,618 JOHN ST,SEATTLE,WA,98109,47.61986,-122.34413,LAKE UNION,7,1959,5,0,113173,70627,42546,Hotel,92,68.30,67.90,4826396,4792422,135.70,134.30,Hotel,70627,Parking,42546,NA,,746117,2545752,22467,2246670,0,126.1,1.8,Compliant,No Issue
68,2018,HOLIDAY INN - SEATTLE,NonResidential,1991200935,211 DEXTER AVE N,SEATTLE,WA,98109,47.62001,-122.34274,LAKE UNION,7,2000,7,0,150453,115718,34735,Hotel,88,66.40,66.00,7682808,7635998,124.30,124.20,Hotel,115718,Parking,34735,NA,,1064094,3630689,40053,4005307,0,222.4,1.9,Compliant,No Issue
69,2018,HOLIDAY INN EXPRESS - DOWNTOWN SEATTLE,NonResidential,1991200940,226 AURORA AVE N,SEATTLE,WA,98109,47.62025,-122.34314,LAKE UNION,1,1997,6,0,116300,88100,28200,Hotel,85,60.60,60.60,5358454,5358454,123.40,123.40,Hotel,88490,NA,,NA,,886436,3024518,23339,2333936,0,132,1.5,Compliant,No Issue
70,2018,HOMEWOOD SUITES HOTEL - SEATTLE,NonResidential,1992200235,206 WESTERN AVE W,SEATTLE,WA,98119,47.62023,-122.35951,MAGNOLIA / QUEEN ANNE,1,1998,6,0,155602,118858,36744,Hotel,95,45.70,45.60,7105433,7099446,92.60,92.40,Hotel,155602,NA,,NA,,1160748,3960472,31390,3138974,0,177.3,1.5,Compliant,No Issue
73,2018,SEATTLE HEBREW ACADEMY,NonResidential,2125049015,1617 INTERLAKEN DR E,SEATTLE,WA,98112,47.63442,-122.30793,EAST,3,1911,3,0,56072,56072,0,K-12 School,57,63.60,59.90,3563641,3358370,84.10,79.80,K-12 School,56072,NA,,NA,,159101,542853,28155,2815516,0,151,2.7,Compliant,No Issue
77,2018,COMFORT SUITES SEATTLE CENTER,NonResidential,2249000170,601 ROY ST,SEATTLE,WA,98109,47.62519,-122.34456,MAGNOLIA / QUEEN ANNE,7,1999,4,0,122942,78051,44891,Hotel,95,65.30,65.20,5099893,5089622,122.50,122.10,Hotel,78051,Parking,44891,NA,,700906,2391491,26981,2698131,0,149.7,1.9,Compliant,No Issue
82,2018,WA DEPT OF SOCIAL & HEALTH SERVICES,NonResidential,2254501944,1700 E CHERRY ST,SEATTLE,WA,98122,47.60823,-122.30956,CENTRAL,3,1962,2,0,54984,54984,0,Office,62,66.10,63.80,3633946,3510100,128.50,126.20,Office,54984,NA,,NA,,544540,1857972,16521,1652128,0,92.7,1.7,Compliant,No Issue
84,2018,PROVIDENCE MT ST VINCENT,NonResidential,2324039001,4831 35TH AVE SW,SEATTLE,WA,98126,47.55837,-122.37751,SOUTHWEST,1,1922,5,0,371257,296313,74944,Senior Care Community,57,149.10,144.60,44165828,42848800,224.90,220.20,Senior Care Community,296313,Parking,0,NA,,3393000,11576916,312719,31271884,0,1691.8,5.7,Compliant,No Issue
85,2018,FOSS HOME AND VILLAGE,NonResidential,2426039059,13023 GREENWOOD AVE N,SEATTLE,WA,98133,47.72426,-122.35599,NORTHWEST,5,1970,2,0,93397,93397,0,Senior Care Community,1,173.30,172.40,16182456,16100519,284.00,282.70,Senior Care Community,93397,NA,,NA,,1590832,5427919,106726,10672602,0,581.3,6.2,Compliant,No Issue
86,2018,SCCA - ALLIANCE HOUSE,NonResidential,2467400430,207 PONTIUS AVE N,SEATTLE,WA,98109,47.61988,-122.33211,LAKE UNION,7,2008,6,0,84103,63371,20732,Hotel,76,66.10,65.70,4186683,4162604,158.70,158.30,Hotel,63371,Parking,20732,NA,,948464,3236160,9264,926443,0,57.8,0.9,Compliant,No Issue
87,2018,ARBOR HEIGHTS ELEMENTARY SCHOOL (SPS-DISTRICT),SPS-District K-12,2518400005,3701 SW 104TH ST,SEATTLE,WA,98146,47.5097,-122.37759,SOUTHWEST,1,1948,2,0,53352,53352,0,K-12 School,100,7.80,7.80,704390,704390,21.70,21.70,K-12 School,90763,NA,,NA,,206445,704390,0,0,0,1.9,0,Account Requires Verification,Low Outlier - EUI
89,2018,POLYCLINIC MEDICAL OFFICE,NonResidential,1978201270,1200 HARVARD AVE,SEATTLE,WA,98122,47.61244,-122.3214,EAST,1,1965,3,2,241014,119305,121709,Medical Office,63,93.70,91.00,16768501,16293902,185.70,182.90,Medical Office,179014,Parking,150475,NA,,2618000,8932616,73613,7361286,0,414.8,3.5,Compliant,No Issue
95,2018,SORRENTO HOTEL,NonResidential,1979200270,900 MADISON ST,SEATTLE,WA,98104,47.60898,-122.32693,EAST,3,1908,7,0,76631,76631,0,Hotel,73,92.20,91.50,7062656,7008332,152.70,152.60,Hotel,76631,NA,,NA,,726646,2479315,45290,4529017,0,247.2,3.2,Compliant,No Issue
96,2018,PUGET SOUND BLOOD CENTER,NonResidential,1979200290,921 TERRY AVE,SEATTLE,WA,98104,47.60845,-122.32637,EAST,3,1983,6,0,99780,90439,9341,Mixed Use Property,,191.00,189.60,14446802,14342250,427.30,426.90,Medical Office,40654,Parking,20868,Office,17020,2760829,9419949,0,0,4922300,286.8,3.2,Compliant,No Issue
98,2018,400 WESTLAKE,NonResidential,1983200230,400 WESTLAKE AVE N,SEATTLE,WA,98109,47.62237,-122.33805,LAKE UNION,1,1929,2,1,58320,58320,0,Retail Store,,8.10,7.70,505431,480558,12.60,12.20,Retail Store,62280,NA,,NA,,42665,145574,3350,334984,0,18.2,0.3,Compliant,No Issue
100,2018,CITY PLACE III (Obidos/Rufus),NonResidential,1983200325,551 BOREN AVE N,SEATTLE,WA,98109,47.62424,-122.33646,LAKE UNION,1,2010,5,2,317687,166961,150726,Office,90,54.20,53.90,15574155,15489316,134.30,134.10,Office,247882,Parking,150726,Retail Store,26464,3728756,12722515,27668,2766801,0,180.9,1.1,Compliant,No Issue
102,2018,MARRIOTT RESIDENCE INN,NonResidential,1984200065,800 FAIRVIEW AVE N,SEATTLE,WA,98109,47.62642,-122.33325,LAKE UNION,1,1990,7,0,282863,238097,44766,Hotel,73,76.00,74.70,18145262,17842512,146.10,144.80,Hotel,238793,Parking,51537,NA,,2652970,9051934,87906,8790580,0,491,2.1,Compliant,No Issue
103,2018,KEY ARENA - SEATTLE CENTER,Nonresidential COS,1985200003,305 HARRISON ST,SEATTLE,WA,98109,47.62141,-122.35086,MAGNOLIA / QUEEN ANNE,7,1962,1,0,389000,389000,0,Other,,47.70,48.00,17550918,17671616,111.30,111.60,Other,368000,NA,,NA,,3722328,12700583,5292,529232,3135800,228.7,0.6,Compliant,No Issue
104,2018,BAGLEY WRIGHT THEATER - SEATTLE CENTER,Nonresidential COS,1985200003,305 HARRISON ST,SEATTLE,WA,98109,47.62141,-122.35086,MAGNOLIA / QUEEN ANNE,1,1962,1,0,91213,91213,0,Other,,96.10,93.20,6247680,6060956,210.20,205.50,Other,65000,NA,,NA,,1122689,3830615,0,0,2045680,119,1.3,Compliant,No Issue
106,2018,ARMORY - SEATTLE CENTER,Nonresidential COS,1985200305,305 HARRISON ST,SEATTLE,WA,98109,47.62141,-122.35086,MAGNOLIA / QUEEN ANNE,1,1938,5,0,396085,396085,0,Other,,74.40,75.90,20723526,21143556,122.70,124.10,Other,278500,NA,,NA,,1918146,6544714,0,0,10041840,551.3,1.4,Compliant,No Issue
107,2018,CITY PLACE IV (Ruby/Dawson),NonResidential,1986200410,301 BOREN AVE N,SEATTLE,WA,98109,47.62112,-122.33629,LAKE UNION,7,2010,12,0,571329,571329,0,Office,88,60.30,60.20,37659228,37603100,149.40,149.10,Office,598801,Parking,310699,Other,26203,8994728,30690012,69131,6913089,0,449.1,0.8,Compliant,No Issue
110,2018,EXHIBITION HALL - SEATTLE CENTER,Nonresidential COS,1988200440,301 MERCER ST,SEATTLE,WA,98109,47.62395,-122.35143,MAGNOLIA / QUEEN ANNE,1,1962,2,0,52000,52000,0,Social/Meeting Hall,,51.20,50.80,2812517,2793789,116.00,115.50,Social/Meeting Hall,54981,NA,,NA,,557268,1901399,0,0,732210,44,0.8,Compliant,No Issue
112,2018,MCCAW HALL - SEATTLE CENTER,Nonresidential COS,1988200700,225 MERCER ST,SEATTLE,WA,98109,47.62395,-122.35143,MAGNOLIA / QUEEN ANNE,1,1928,2,0,262048,262048,0,Other,,78.10,77.50,23115938,22925618,168.70,166.70,Other,296000,NA,,NA,,4148040,14153112,5807,580726,5634930,368.2,1.4,Compliant,No Issue
113,2018,KCTS 9,NonResidential,1988200705,401 MERCER ST,SEATTLE,WA,98109,47.62391,-122.34837,MAGNOLIA / QUEEN ANNE,7,1986,2,0,66240,63888,2352,Office,,77.20,77.20,4294517,4294517,216.10,216.10,Office,45900,Data Center,5181,Distribution Center,4551,1258651,4294517,0,0,0,11.5,0.2,Compliant,No Issue
114,2018,BILL & MELINDA GATES FOUNDATION,NonResidential,1988201155,500 5TH AVE N,SEATTLE,WA,98109,47.62419,-122.34443,MAGNOLIA / QUEEN ANNE,7,2010,6,0,920598,616891,303707,Office,83,49.90,49.50,36720756,36406928,116.00,116.20,Office,729584,Parking,185014,Other,6000,7913267,27000067,94069,9406863,0,571.7,0.9,Compliant,No Issue
115,2018,SCRIPPS BUILDING - 221 FIRST AVENUE WEST,NonResidential,1989200850,221 1ST AVE W,SEATTLE,WA,98119,47.62053,-122.35842,MAGNOLIA / QUEEN ANNE,7,1970,4,0,76213,50283,25930,Office,63,63.70,62.50,3244416,3185760,153.30,152.10,Office,48546,Parking,21454,Other,2406,737629,2516791,6690,668970,0,42.2,0.8,Compliant,No Issue
116,2018,THE MEDITERRANEAN INN,NonResidential,1989201125,425 QUEEN ANNE AVE N,SEATTLE,WA,98109,47.62291,-122.35708,MAGNOLIA / QUEEN ANNE,1,2002,6,0,127200,81560,45640,Hotel,65,69.10,68.90,5637579,5621753,127.20,126.60,Hotel,79696,Parking,45640,Other - Restaurant/Bar,1864,740931,2528057,30937,3093696,0,171.1,2.1,Compliant,No Issue
117,2018,UNIVERSITY INN,NonResidential,1142001871,4140 ROOSEVELT WAY NE,SEATTLE,WA,98105,47.65772,-122.31756,NORTHEAST,1,1962,4,0,71403,60953,10450,Hotel,34,88.00,87.40,5361037,5329954,151.30,150.80,Hotel,52953,Restaurant,8000,Parking,0,601690,2052966,32770,3276988,0,179.5,2.9,Compliant,No Issue
118,2018,PATHFINDER/COOPER SCHOOL (SPS-DISTRICT),SPS-District K-12,1324039116,1901 SW GENESEE ST,SEATTLE,WA,98106,47.5636,-122.358,DELRIDGE NEIGHBORHOODS,1,1999,3,0,74468,74468,0,K-12 School,82,27.20,26.70,2046344,2012943,66.60,65.30,K-12 School,75364,NA,,NA,,470821,1606440,4065,406503,0,25.9,0.3,Compliant,No Issue
119,2018,ST JOSEPH K-8 SCHOOL,NonResidential,1336800825,700 18TH AVE E,SEATTLE,WA,98112,47.62548,-122.30828,EAST,1,1923,3,0,67743,67743,0,K-12 School,19,53.80,50.70,3642282,3435753,100.10,96.20,K-12 School,67743,NA,,NA,,487332,1662776,17730,1772976,0,98.6,1.5,Compliant,No Issue
120,2018,HOLY NAMES ACADEMY,NonResidential,1338800660,728 21ST AVE E,SEATTLE,WA,98112,47.62644,-122.30429,EAST,1,1908,6,0,194104,194104,0,K-12 School,91,37.70,35.50,7662556,7205274,58.50,55.80,K-12 School,203004,NA,,NA,,630600,2151608,50537,5053665,0,274.1,1.4,Compliant,No Issue
121,2018,THE 2100 BUILDING,NonResidential,1498303116,2100 24TH AVE S,SEATTLE,WA,98144,47.58408,-122.30125,SOUTHEAST,3,2003,3,0,99433,63681,35752,Office,53,81.60,80.50,5195504,5128164,228.40,225.50,Office,63681,Parking,35752,NA,,1502979,5128164,0,0,0,13.7,0.2,Compliant,No Issue
122,2018,MUIR ELEMENTARY SCHOOL(SPS-DISTRICT),SPS-District K-12,1524049002,3301 S HORTON ST,SEATTLE,WA,98144,47.57324,-122.29058,SOUTHEAST,1,1991,2,0,60725,60725,0,K-12 School,47,35.40,34.00,2152186,2061667,99.20,95.10,K-12 School,60725,NA,,NA,,604240,2061666,0,0,0,5.5,0.1,Compliant,No Issue
125,2018,MERCER MIDDLE (SPS-DISTRICT),SPS-District K-12,1624049214,1600 S COLUMBIAN WAY,SEATTLE,WA,98108,47.56413,-122.31208,GREATER DUWAMISH,1,1957,1,0,130862,130862,0,K-12 School,59,49.70,47.10,6921308,6554594,79.60,76.10,K-12 School,139310,NA,,NA,,622792,2124965,44296,4429630,0,240.9,1.8,Compliant,No Issue
127,2018,ORCA AT WHITWORTH ELEMENTARY SCHOOL (SPS-DISTRICT),SPS-District K-12,1704900242,5215 46TH AVE S,SEATTLE,WA,98118,47.55478,-122.27596,SOUTHEAST,2,1989,3,0,59955,59955,0,K-12 School,71,26.90,26.30,1614727,1575261,71.20,69.60,K-12 School,59955,NA,,NA,,422345,1441041,1342,134220,0,11,0.2,Compliant,No Issue
130,2018,MCCLURE MIDDLE (SPS-DISTRICT),SPS-District K-12,1794501220,1915 1ST AVE W,SEATTLE,WA,98119,47.63683,-122.35896,MAGNOLIA / QUEEN ANNE,7,1964,2,0,93218,93218,0,K-12 School,73,32.50,31.10,3034159,2900274,61.00,59.50,K-12 School,93218,NA,,NA,,419215,1430360,14699,1469914,0,81.9,0.9,Compliant,No Issue
131,2018,CENTURYLINK: LAKEVIEW MAIN,NonResidential,1797500625,1208 NE 64TH ST,SEATTLE,WA,98115,47.67524,-122.31534,NORTHEAST,1,1941,4,0,56521,56521,0,Other,,109.20,109.20,5352058,5352058,305.80,305.80,Other,49000,NA,,NA,,1568599,5352060,0,0,0,14.3,0.3,Compliant,No Issue
132,2018,ROOSEVELT SQUARE,NonResidential,1797500715,6417 ROOSEVELT WAY NE,SEATTLE,WA,98115,47.67559,-122.31769,NORTHEAST,1,1929,2,0,228385,128315,100070,Other,,125.70,126.00,16260586,16303865,319.80,321.40,Other,129396,Parking,0,NA,,4097607,13981035,23228,2322829,0,160.7,1.3,Compliant,No Issue
135,2018,CERTAINTEED WAREHOUSE,NonResidential,1924049092,5931 E MARGINAL WAY S,SEATTLE,WA,98134,47.54854,-122.33651,GREATER DUWAMISH,2,1999,1,1,50294,50294,0,NA,,,,,,,,NA,,NA,,NA,,0,0,0,0,0,0,0,Not Compliant,Portfolio Manager Not Connected to the City of Seattle
136,2018,HOLIDAY INN EXPRESS - SEATTLE NORTH,NonResidential,1926049012,14115 AURORA AVE N,SEATTLE,WA,98133,47.73141,-122.3458,NORTHWEST,5,2001,4,0,51390,51390,0,Hotel,84,79.40,79.40,4082248,4082248,132.70,132.70,Hotel,51390,Parking,0,NA,,424105,1447046,26352,2635202,0,143.8,2.8,Compliant,No Issue
137,2018,BROADVIEW THOMSON K-8 (SPS-DISTRICT),SPS-District K-12,1926049025,13052 GREENWOOD AVE N,SEATTLE,WA,98133,47.72463,-122.35315,NORTHWEST,1,1963,2,0,131013,131013,0,K-12 School,91,34.20,33.90,4513635,4472441,57.00,56.60,K-12 School,131909,NA,,NA,,464426,1584621,28878,2887820,0,157.6,1.2,Compliant,No Issue
138,2018,INGRAHAM HIGH (SPS-DISTRICT),SPS-District K-12,1926049321,1819 N 135TH ST,SEATTLE,WA,98133,47.7257,-122.33684,NORTHWEST,1,1959,1,0,245587,245587,0,K-12 School,90,41.10,40.60,10250726,10121895,65.90,65.30,K-12 School,249171,NA,,NA,,946489,3229420,68925,6892475,0,374.7,1.5,Compliant,No Issue
139,2018,7066-Seattle-Northgate,NonResidential,1926049434,13300 STONE AVE N,SEATTLE,WA,98133,47.72529,-122.34115,NORTHWEST,1,2002,3,0,69138,69138,0,Hotel,84,42.80,42.60,3020059,3010748,88.00,87.80,Hotel,70609,NA,,NA,,509217,1737448,12733,1273300,0,72.3,1,Compliant,No Issue
140,2018,B F DAY ELEMENTARY (SPS-DISTRICT),SPS-District K-12,1931301145,3921 LINDEN AVE N,SEATTLE,WA,98103,47.65464,-122.34912,LAKE UNION,1,1991,3,0,66588,66588,0,K-12 School,79,25.40,24.80,1693095,1652397,71.20,69.50,K-12 School,66588,NA,,NA,,484290,1652396,0,0,0,4.4,0.1,Compliant,No Issue
141,2018,HUGHES ELEMENTARY SCHOOL - Under Construction until 2019,SPS-District K-12,1932300245,7740 34TH AVE SW,SEATTLE,WA,98126,47.53284,-122.37493,DELRIDGE NEIGHBORHOODS,1,1926,3,0,50662,50662,0,NA,,,,,,,,NA,,NA,,NA,,0,0,0,0,0,0,0,Not Compliant,Portfolio Manager Not Connected to the City of Seattle
144,2018,ALEXIS HOTEL,NonResidential,1974600035,1007 1ST AVE,SEATTLE,WA,98104,47.6048,-122.3368,DOWNTOWN,1,1904,5,2,190980,190980,0,Hotel,98,36.90,36.60,7047188,6986186,85.50,84.60,Hotel,169037,Enclosed Mall,21943,NA,,1476532,5037927,19483,1948259,0,116.9,0.6,Compliant,No Issue
145,2018,BENAROYA HALL,Nonresidential COS,1974700025,1301 3RD AVE,SEATTLE,WA,98101,47.60804,-122.3367,DOWNTOWN,1,1998,6,1,174000,174000,0,Mixed Use Property,,96.30,95.60,16604994,16476084,205.80,206.00,Performing Arts,163031,Parking,153719,Social/Meeting Hall,9380,2895001,9877743,4802,480213,6118126,377.1,2.2,Compliant,No Issue
147,2018,SWEDISH MEDICAL CENTER BALLARD - CAMPUS,Campus,2767703875,5300 TALLMAN AVE NW,SEATTLE,WA,98107,47.66737,-122.37956,BALLARD,1,1954,5,2,451526,302661,148865,Hospital (General Medical & Surgical),33,,210.20,,63605736,,401.20,Hospital (General Medical & Surgical),302661,Parking,148865,NA,,9151495,31224901,323808,32380834,0,1803.1,6,Compliant,No Issue
148,2018,WEST WOODLAND PARK ELEMENTARY (SPS-DISTRICT),SPS-District K-12,2768000375,5601 5TH AVE NW,SEATTLE,WA,98107,47.6706,-122.36225,SHARED: BALLARD &amp; NORTHWEST,6,1991,2,0,55513,55513,0,K-12 School,76,24.10,23.40,1490934,1444802,67.60,65.50,K-12 School,61785,NA,,NA,,423447,1444801,0,0,0,3.9,0.1,Compliant,No Issue
163,2018,FIRE STATION 10/FAC/EOC,Nonresidential COS,5247801465,400 S WASHINGTON ST,SEATTLE,WA,98104,47.60102,-122.32873,DOWNTOWN,1,2006,4,1,61156,61156,0,Fire Station,,154.00,152.70,8923152,8849525,358.10,359.20,Fire Station,30301,Office,27659,NA,,1930407,6586549,22630,2262976,0,137.8,2.3,Compliant,No Issue
167,2018,WING LUKE MUSEUM/KONG YICK BLDG.,NonResidential,5247802715,719 S KING ST,SEATTLE,WA,98104,47.59809,-122.32283,DOWNTOWN,2,1910,4,0,72820,59000,13820,Museum,,27.20,26.70,1574920,1546257,61.20,60.70,Museum,58000,NA,,NA,,317430,1083072,4632,463185,0,27.5,0.5,Compliant,No Issue
168,2018,HAMPTON INN & SUITES,NonResidential,5458300285,700 5TH AVE N,SEATTLE,WA,98109,47.62614,-122.3467,MAGNOLIA / QUEEN ANNE,1,1996,4,0,162222,148022,14200,Hotel,97,50.00,50.00,5686356,5686356,99.00,99.00,Hotel,113702,Parking,32692,NA,,884936,3019403,26670,2666953,0,149.7,1,Compliant,No Issue
169,2018,FRANKLIN HIGH SCHOOL (SPS-DISTRICT),SPS-District K-12,5700000455,3013 S MOUNT BAKER BLVD,SEATTLE,WA,98144,47.57589,-122.29365,SOUTHEAST,2,1990,4,0,289588,289588,0,K-12 School,93,25.80,25.00,7463115,7245292,58.10,57.30,K-12 School,289588,NA,,NA,,1505188,5135701,21096,2109592,0,125.8,0.4,Compliant,No Issue
170,2018,SEATTLE CENTRAL COLLEGE - FINE ARTS BLDG,NonResidential,6003000470,801 E PINE ST,SEATTLE,WA,98122,47.61495,-122.32177,EAST,1,1915,3,1,64820,64820,0,College/University,,57.70,55.50,3739678,3600283,116.70,114.50,College/University,50820,Performing Arts,14000,NA,,609739,2080429,15199,1519854,0,86.3,1.3,Compliant,No Issue
172,2018,SOUTH SEATTLE COLLEGE - CAMPUS MASTER ID,Campus,6171900005,6000 16TH AVE SW,SEATTLE,WA,98106,47.547,-122.35307,DELRIDGE NEIGHBORHOODS,1,1970,2,27,529343,529343,0,College/University,,67.90,66.00,35956032,34918664,140.20,137.40,College/University,529343,NA,,NA,,6038775,20604300,143144,14314366,0,815.2,1.5,Compliant,No Issue
173,2018,SEATTLE CHILDREN'S HOSPITAL (ADMIN BLDG),NonResidential,6418100005,6901 SAND POINT WAY NE,SEATTLE,WA,98115,47.67836,-122.26442,NORTHEAST,4,2002,2,0,96300,96300,0,Office,,166.90,166.50,16228430,16189953,401.10,402.70,Office,92300,Data Center,4944,NA,,3710922,12661666,35283,3528285,0,221.2,2.3,Compliant,No Issue
